[{"OBJECT_NAME":"STARLINK-36404","OBJECT_ID":"2026-022S","EPOCH":"2026-03-02T15:43:31.042560","MEAN_MOTION":15.75206621,"ECCENTRICITY":0.00016112,"INCLINATION":97.283,"RA_OF_ASC_NODE":95.315,"ARG_OF_PERICENTER":72.166,"MEAN_ANOMALY":287.9781,"EPHEMERIS_TYPE":0,"CLASSIFICATION_TYPE":"U","NORAD_CAT_ID":67664,"ELEMENT_SET_NO":999,"REV_AT_EPOCH":444,"BSTAR":0.00026169623,"MEAN_MOTION_DOT":0.00039112,"MEAN_MOTION_DDOT":0},{"OBJECT_NAME":"STARLINK-36399","OBJECT_ID":"2026-022T","EPOCH":"2026-03-02T15:42:31.662432","MEAN_MOTION":15.7522949,"ECCENTRICITY":0.0001545,"INCLINATION":97.2833,"RA_OF_ASC_NODE":95.3161,"ARG_OF_PERICENTER":96.1983,"MEAN_ANOMALY":263.9458,"EPHEMERIS_TYPE":0,"CLASSIFICATION_TYPE":"U","NORAD_CAT_ID":67665,"ELEMENT_SET_NO":999,"REV_AT_EPOCH":444,"BSTAR":0.0013752,"MEAN_MOTION_DOT":0.00210482,"MEAN_MOTION_DDOT":0},{"OBJECT_NAME":"STARLINK-36365","OBJECT_ID":"2026-022U","EPOCH":"2026-03-02T15:40:29.911008","MEAN_MOTION":15.75216926,"ECCENTRICITY":0.00018693,"INCLINATION":97.2833,"RA_OF_ASC_NODE":95.3181,"ARG_OF_PERICENTER":86.6035,"MEAN_ANOMALY":273.5444,"EPHEMERIS_TYPE":0,"CLASSIFICATION_TYPE":"U","NORAD_CAT_ID":67666,"ELEMENT_SET_NO":999,"REV_AT_EPOCH":444,"BSTAR":0.00097966234,"MEAN_MOTION_DOT":0.00148742,"MEAN_MOTION_DDOT":0},{"OBJECT_NAME":"STARLINK-36622","OBJECT_ID":"2026-022V","EPOCH":"2026-03-02T15:37:57.806400","MEAN_MOTION":15.75189059,"ECCENTRICITY":0.00023641,"INCLINATION":97.2834,"RA_OF_ASC_NODE":95.3209,"ARG_OF_PERICENTER":75.3688,"MEAN_ANOMALY":284.7839,"EPHEMERIS_TYPE":0,"CLASSIFICATION_TYPE":"U","NORAD_CAT_ID":67667,"ELEMENT_SET_NO":999,"REV_AT_EPOCH":444,"BSTAR":0.0010382685,"MEAN_MOTION_DOT":0.00157629,"MEAN_MOTION_DDOT":0},{"OBJECT_NAME":"STARLINK-36625","OBJECT_ID":"2026-022W","EPOCH":"2026-03-02T15:35:55.677408","MEAN_MOTION":15.75191862,"ECCENTRICITY":0.0002003,"INCLINATION":97.2842,"RA_OF_ASC_NODE":95.3231,"ARG_OF_PERICENTER":87.5303,"MEAN_ANOMALY":272.6192,"EPHEMERIS_TYPE":0,"CLASSIFICATION_TYPE":"U","NORAD_CAT_ID":67668,"ELEMENT_SET_NO":999,"REV_AT_EPOCH":444,"BSTAR":0.0006892897,"MEAN_MOTION_DOT":0.00103955,"MEAN_MOTION_DDOT":0},{"OBJECT_NAME":"STARLINK-36639","OBJECT_ID":"2026-022X","EPOCH":"2026-03-02T15:33:22.696704","MEAN_MOTION":15.75240464,"ECCENTRICITY":9.763e-5,"INCLINATION":97.2837,"RA_OF_ASC_NODE":95.3241,"ARG_OF_PERICENTER":96.1618,"MEAN_ANOMALY":263.9759,"EPHEMERIS_TYPE":0,"CLASSIFICATION_TYPE":"U","NORAD_CAT_ID":67669,"ELEMENT_SET_NO":999,"REV_AT_EPOCH":444,"BSTAR":0.0012814088,"MEAN_MOTION_DOT":0.00195875,"MEAN_MOTION_DDOT":0},{"OBJECT_NAME":"STARLINK-36596","OBJECT_ID":"2026-022Y","EPOCH":"2026-03-02T13:59:22.011360","MEAN_MOTION":15.75285711,"ECCENTRICITY":0.0001518,"INCLINATION":97.2831,"RA_OF_ASC_NODE":95.2608,"ARG_OF_PERICENTER":78.8753,"MEAN_ANOMALY":281.2683,"EPHEMERIS_TYPE":0,"CLASSIFICATION_TYPE":"U","NORAD_CAT_ID":67670,"ELEMENT_SET_NO":999,"REV_AT_EPOCH":443,"BSTAR":0.0016746,"MEAN_MOTION_DOT":0.00258417,"MEAN_MOTION_DDOT":0},{"OBJECT_NAME":"STARLINK-36297","OBJECT_ID":"2026-022Z","EPOCH":"2026-03-02T15:27:47.679840","MEAN_MOTION":15.75201009,"ECCENTRICITY":0.00016049,"INCLINATION":97.2841,"RA_OF_ASC_NODE":95.3297,"ARG_OF_PERICENTER":82.8255,"MEAN_ANOMALY":277.3193,"EPHEMERIS_TYPE":0,"CLASSIFICATION_TYPE":"U","NORAD_CAT_ID":67671,"ELEMENT_SET_NO":999,"REV_AT_EPOCH":444,"BSTAR":0.0014107082,"MEAN_MOTION_DOT":0.00215793,"MEAN_MOTION_DDOT":0},{"OBJECT_NAME":"STARLINK-36616","OBJECT_ID":"2026-022AA","EPOCH":"2026-03-02T15:29:49.174656","MEAN_MOTION":15.75196006,"ECCENTRICITY":7.53e-5,"INCLINATION":97.2849,"RA_OF_ASC_NODE":95.3279,"ARG_OF_PERICENTER":139.7129,"MEAN_ANOMALY":220.4192,"EPHEMERIS_TYPE":0,"CLASSIFICATION_TYPE":"U","NORAD_CAT_ID":67672,"ELEMENT_SET_NO":999,"REV_AT_EPOCH":444,"BSTAR":0.0021772,"MEAN_MOTION_DOT":0.00337896,"MEAN_MOTION_DDOT":0},{"OBJECT_NAME":"COSMOS 2600","OBJECT_ID":"2026-023A","EPOCH":"2026-02-28T07:05:07.619712","MEAN_MOTION":15.83528492,"ECCENTRICITY":0.00032481,"INCLINATION":96.6452,"RA_OF_ASC_NODE":135.2352,"ARG_OF_PERICENTER":47.0444,"MEAN_ANOMALY":313.1099,"EPHEMERIS_TYPE":0,"CLASSIFICATION_TYPE":"U","NORAD_CAT_ID":67674,"ELEMENT_SET_NO":999,"REV_AT_EPOCH":356,"BSTAR":0.00032745834,"MEAN_MOTION_DOT":0.00071571,"MEAN_MOTION_DDOT":0},{"OBJECT_NAME":"2026-023B","OBJECT_ID":"2026-023B","EPOCH":"2026-03-02T08:39:52.056288","MEAN_MOTION":15.2278433,"ECCENTRICITY":0.00190379,"INCLINATION":96.6376,"RA_OF_ASC_NODE":135.1582,"ARG_OF_PERICENTER":156.923,"MEAN_ANOMALY":203.2868,"EPHEMERIS_TYPE":0,"CLASSIFICATION_TYPE":"U","NORAD_CAT_ID":67675,"ELEMENT_SET_NO":999,"REV_AT_EPOCH":374,"BSTAR":0.00054032032,"MEAN_MOTION_DOT":0.00012638,"MEAN_MOTION_DDOT":0},{"OBJECT_NAME":"2026-023C","OBJECT_ID":"2026-023C","EPOCH":"2026-03-02T22:49:43.972896","MEAN_MOTION":15.22906591,"ECCENTRICITY":0.00201555,"INCLINATION":96.6408,"RA_OF_ASC_NODE":135.7023,"ARG_OF_PERICENTER":145.3411,"MEAN_ANOMALY":214.9146,"EPHEMERIS_TYPE":0,"CLASSIFICATION_TYPE":"U","NORAD_CAT_ID":67676,"ELEMENT_SET_NO":999,"REV_AT_EPOCH":399,"BSTAR":0.00063748001,"MEAN_MOTION_DOT":0.00014989,"MEAN_MOTION_DDOT":0},{"OBJECT_NAME":"2026-023D","OBJECT_ID":"2026-023D","EPOCH":"2026-03-02T22:53:03.223392","MEAN_MOTION":15.22723469,"ECCENTRICITY":0.00203692,"INCLINATION":96.6439,"RA_OF_ASC_NODE":135.6903,"ARG_OF_PERICENTER":150.1838,"MEAN_ANOMALY":210.0566,"EPHEMERIS_TYPE":0,"CLASSIFICATION_TYPE":"U","NORAD_CAT_ID":67677,"ELEMENT_SET_NO":999,"REV_AT_EPOCH":382,"BSTAR":0.00058999621,"MEAN_MOTION_DOT":0.00013792,"MEAN_MOTION_DDOT":0},{"OBJECT_NAME":"2026-023E","OBJECT_ID":"2026-023E","EPOCH":"2026-03-02T22:50:20.929632","MEAN_MOTION":15.22884758,"ECCENTRICITY":0.00201498,"INCLINATION":96.6331,"RA_OF_ASC_NODE":135.673,"ARG_OF_PERICENTER":149.6589,"MEAN_ANOMALY":210.5821,"EPHEMERIS_TYPE":0,"CLASSIFICATION_TYPE":"U","NORAD_CAT_ID":67678,"ELEMENT_SET_NO":999,"REV_AT_EPOCH":382,"BSTAR":0.00067093486,"MEAN_MOTION_DOT":0.0001577,"MEAN_MOTION_DDOT":0},{"OBJECT_NAME":"2026-023F","OBJECT_ID":"2026-023F","EPOCH":"2026-03-02T22:46:57.893088","MEAN_MOTION":15.23037296,"ECCENTRICITY":0.00220242,"INCLINATION":96.634,"RA_OF_ASC_NODE":138.1726,"ARG_OF_PERICENTER":144.5012,"MEAN_ANOMALY":215.7697,"EPHEMERIS_TYPE":0,"CLASSIFICATION_TYPE":"U","NORAD_CAT_ID":67679,"ELEMENT_SET_NO":999,"REV_AT_EPOCH":381,"BSTAR":0.00066516759,"MEAN_MOTION_DOT":0.00015722,"MEAN_MOTION_DDOT":0},{"OBJECT_NAME":"2026-023G","OBJECT_ID":"2026-023G","EPOCH":"2026-03-02T22:47:55.099392","MEAN_MOTION":15.22997771,"ECCENTRICITY":0.00235793,"INCLINATION":96.6267,"RA_OF_ASC_NODE":138.1564,"ARG_OF_PERICENTER":141.082,"MEAN_ANOMALY":219.2122,"EPHEMERIS_TYPE":0,"CLASSIFICATION_TYPE":"U","NORAD_CAT_ID":67680,"ELEMENT_SET_NO":999,"REV_AT_EPOCH":381,"BSTAR":0.00069753728,"MEAN_MOTION_DOT":0.00016488,"MEAN_MOTION_DDOT":0}]
